[{"OBJECT_NAME":"GPS BIIR-2  (PRN 13)","OBJECT_ID":"1997-035A","EPOCH":"2026-04-04T09:52:57.696096","MEAN_MOTION":2.00564009,"ECCENTRICITY":0.00989699,"INCLINATION":55.9542,"RA_OF_ASC_NODE":101.4579,"ARG_OF_PERICENTER":56.142,"MEAN_ANOMALY":304.8226,"EPHEMERIS_TYPE":0,"CLASSIFICATION_TYPE":"U","NORAD_CAT_ID":24876,"ELEMENT_SET_NO":999,"REV_AT_EPOCH":21047,"BSTAR":0,"MEAN_MOTION_DOT":1.5e-7,"MEAN_MOTION_DDOT":0},{"OBJECT_NAME":"GPS BIIR-5  (PRN 22)","OBJECT_ID":"2000-040A","EPOCH":"2026-04-05T17:44:03.583104","MEAN_MOTION":2.00569364,"ECCENTRICITY":0.0122119,"INCLINATION":54.8673,"RA_OF_ASC_NODE":218.0384,"ARG_OF_PERICENTER":302.5079,"MEAN_ANOMALY":230.6033,"EPHEMERIS_TYPE":0,"CLASSIFICATION_TYPE":"U","NORAD_CAT_ID":26407,"ELEMENT_SET_NO":999,"REV_AT_EPOCH":18849,"BSTAR":0,"MEAN_MOTION_DOT":8.0e-8,"MEAN_MOTION_DDOT":0},{"OBJECT_NAME":"GPS BIIR-8  (PRN 16)","OBJECT_ID":"2003-005A","EPOCH":"2026-04-05T18:17:56.651136","MEAN_MOTION":2.00564553,"ECCENTRICITY":0.014845,"INCLINATION":54.8986,"RA_OF_ASC_NODE":217.8451,"ARG_OF_PERICENTER":52.8937,"MEAN_ANOMALY":272.6776,"EPHEMERIS_TYPE":0,"CLASSIFICATION_TYPE":"U","NORAD_CAT_ID":27663,"ELEMENT_SET_NO":999,"REV_AT_EPOCH":16985,"BSTAR":0,"MEAN_MOTION_DOT":8.0e-8,"MEAN_MOTION_DDOT":0},{"OBJECT_NAME":"GPS BIIR-11 (PRN 19)","OBJECT_ID":"2004-009A","EPOCH":"2026-04-03T08:14:52.746720","MEAN_MOTION":2.00557195,"ECCENTRICITY":0.01124448,"INCLINATION":54.8926,"RA_OF_ASC_NODE":278.7093,"ARG_OF_PERICENTER":169.9755,"MEAN_ANOMALY":4.1137,"EPHEMERIS_TYPE":0,"CLASSIFICATION_TYPE":"U","NORAD_CAT_ID":28190,"ELEMENT_SET_NO":999,"REV_AT_EPOCH":16144,"BSTAR":0,"MEAN_MOTION_DOT":-3.5e-7,"MEAN_MOTION_DDOT":0},{"OBJECT_NAME":"GPS BIIR-13 (PRN 02)","OBJECT_ID":"2004-045A","EPOCH":"2026-04-05T18:06:05.393376","MEAN_MOTION":2.0057515,"ECCENTRICITY":0.0170337,"INCLINATION":55.1768,"RA_OF_ASC_NODE":327.8146,"ARG_OF_PERICENTER":314.0563,"MEAN_ANOMALY":225.7789,"EPHEMERIS_TYPE":0,"CLASSIFICATION_TYPE":"U","NORAD_CAT_ID":28474,"ELEMENT_SET_NO":999,"REV_AT_EPOCH":15697,"BSTAR":0,"MEAN_MOTION_DOT":-8.2e-7,"MEAN_MOTION_DDOT":0},{"OBJECT_NAME":"GPS BIIRM-1 (PRN 17)","OBJECT_ID":"2005-038A","EPOCH":"2026-04-05T19:28:19.968672","MEAN_MOTION":2.00570845,"ECCENTRICITY":0.0128061,"INCLINATION":54.9383,"RA_OF_ASC_NODE":276.0964,"ARG_OF_PERICENTER":295.7126,"MEAN_ANOMALY":245.56,"EPHEMERIS_TYPE":0,"CLASSIFICATION_TYPE":"U","NORAD_CAT_ID":28874,"ELEMENT_SET_NO":999,"REV_AT_EPOCH":15038,"BSTAR":0,"MEAN_MOTION_DOT":-1.4e-7,"MEAN_MOTION_DDOT":0},{"OBJECT_NAME":"GPS BIIRM-2 (PRN 31)","OBJECT_ID":"2006-042A","EPOCH":"2026-04-05T05:18:14.064768","MEAN_MOTION":2.00573913,"ECCENTRICITY":0.0106277,"INCLINATION":54.6997,"RA_OF_ASC_NODE":154.2366,"ARG_OF_PERICENTER":53.2094,"MEAN_ANOMALY":319.1647,"EPHEMERIS_TYPE":0,"CLASSIFICATION_TYPE":"U","NORAD_CAT_ID":29486,"ELEMENT_SET_NO":999,"REV_AT_EPOCH":14293,"BSTAR":0,"MEAN_MOTION_DOT":2.3e-7,"MEAN_MOTION_DDOT":0},{"OBJECT_NAME":"GPS BIIRM-3 (PRN 12)","OBJECT_ID":"2006-052A","EPOCH":"2026-04-05T14:57:21.936384","MEAN_MOTION":2.0055389,"ECCENTRICITY":0.0087069,"INCLINATION":54.9491,"RA_OF_ASC_NODE":216.8814,"ARG_OF_PERICENTER":89.945,"MEAN_ANOMALY":271.0399,"EPHEMERIS_TYPE":0,"CLASSIFICATION_TYPE":"U","NORAD_CAT_ID":29601,"ELEMENT_SET_NO":999,"REV_AT_EPOCH":14195,"BSTAR":0,"MEAN_MOTION_DOT":8.0e-8,"MEAN_MOTION_DDOT":0},{"OBJECT_NAME":"GPS BIIRM-4 (PRN 15)","OBJECT_ID":"2007-047A","EPOCH":"2026-04-04T22:21:21.273408","MEAN_MOTION":2.00559152,"ECCENTRICITY":0.0164095,"INCLINATION":54.0414,"RA_OF_ASC_NODE":83.0831,"ARG_OF_PERICENTER":86.2491,"MEAN_ANOMALY":275.6217,"EPHEMERIS_TYPE":0,"CLASSIFICATION_TYPE":"U","NORAD_CAT_ID":32260,"ELEMENT_SET_NO":999,"REV_AT_EPOCH":13534,"BSTAR":0,"MEAN_MOTION_DOT":-1.3e-7,"MEAN_MOTION_DDOT":0},{"OBJECT_NAME":"GPS BIIRM-5 (PRN 29)","OBJECT_ID":"2007-062A","EPOCH":"2026-04-05T00:04:11.523360","MEAN_MOTION":2.00555625,"ECCENTRICITY":0.00339116,"INCLINATION":55.091,"RA_OF_ASC_NODE":277.0926,"ARG_OF_PERICENTER":161.3571,"MEAN_ANOMALY":17.5151,"EPHEMERIS_TYPE":0,"CLASSIFICATION_TYPE":"U","NORAD_CAT_ID":32384,"ELEMENT_SET_NO":999,"REV_AT_EPOCH":13404,"BSTAR":0,"MEAN_MOTION_DOT":-2.2e-7,"MEAN_MOTION_DDOT":0},{"OBJECT_NAME":"GPS BIIRM-6 (PRN 07)","OBJECT_ID":"2008-012A","EPOCH":"2026-04-05T08:19:29.448768","MEAN_MOTION":2.00570393,"ECCENTRICITY":0.020874,"INCLINATION":54.4849,"RA_OF_ASC_NODE":152.8355,"ARG_OF_PERICENTER":246.7478,"MEAN_ANOMALY":111.1181,"EPHEMERIS_TYPE":0,"CLASSIFICATION_TYPE":"U","NORAD_CAT_ID":32711,"ELEMENT_SET_NO":999,"REV_AT_EPOCH":13229,"BSTAR":0,"MEAN_MOTION_DOT":2.2e-7,"MEAN_MOTION_DDOT":0},{"OBJECT_NAME":"GPS BIIRM-8 (PRN 05)","OBJECT_ID":"2009-043A","EPOCH":"2026-04-05T20:09:06.283584","MEAN_MOTION":2.0055849,"ECCENTRICITY":0.0052484,"INCLINATION":56.168,"RA_OF_ASC_NODE":30.2938,"ARG_OF_PERICENTER":80.934,"MEAN_ANOMALY":289.3546,"EPHEMERIS_TYPE":0,"CLASSIFICATION_TYPE":"U","NORAD_CAT_ID":35752,"ELEMENT_SET_NO":999,"REV_AT_EPOCH":12191,"BSTAR":0,"MEAN_MOTION_DOT":-8.5e-7,"MEAN_MOTION_DDOT":0},{"OBJECT_NAME":"GPS BIIF-1  (PRN 25)","OBJECT_ID":"2010-022A","EPOCH":"2026-04-05T04:00:51.194880","MEAN_MOTION":2.00558893,"ECCENTRICITY":0.01269575,"INCLINATION":54.282,"RA_OF_ASC_NODE":211.5026,"ARG_OF_PERICENTER":66.0332,"MEAN_ANOMALY":295.6559,"EPHEMERIS_TYPE":0,"CLASSIFICATION_TYPE":"U","NORAD_CAT_ID":36585,"ELEMENT_SET_NO":999,"REV_AT_EPOCH":11613,"BSTAR":0,"MEAN_MOTION_DOT":6.0e-8,"MEAN_MOTION_DDOT":0},{"OBJECT_NAME":"GPS BIIF-3  (PRN 24)","OBJECT_ID":"2012-053A","EPOCH":"2026-04-05T12:36:39.445056","MEAN_MOTION":2.00566362,"ECCENTRICITY":0.0177431,"INCLINATION":53.5703,"RA_OF_ASC_NODE":146.5768,"ARG_OF_PERICENTER":64.9866,"MEAN_ANOMALY":296.9263,"EPHEMERIS_TYPE":0,"CLASSIFICATION_TYPE":"U","NORAD_CAT_ID":38833,"ELEMENT_SET_NO":999,"REV_AT_EPOCH":9798,"BSTAR":0,"MEAN_MOTION_DOT":2.1e-7,"MEAN_MOTION_DDOT":0},{"OBJECT_NAME":"GPS BIIF-4  (PRN 27)","OBJECT_ID":"2013-023A","EPOCH":"2026-03-31T21:41:02.271264","MEAN_MOTION":2.00563989,"ECCENTRICITY":0.0141962,"INCLINATION":54.5658,"RA_OF_ASC_NODE":272.1198,"ARG_OF_PERICENTER":50.3418,"MEAN_ANOMALY":310.8851,"EPHEMERIS_TYPE":0,"CLASSIFICATION_TYPE":"U","NORAD_CAT_ID":39166,"ELEMENT_SET_NO":999,"REV_AT_EPOCH":9433,"BSTAR":0,"MEAN_MOTION_DOT":-3.4e-7,"MEAN_MOTION_DDOT":0},{"OBJECT_NAME":"GPS BIIF-5  (PRN 30)","OBJECT_ID":"2014-008A","EPOCH":"2026-04-05T09:22:36.251040","MEAN_MOTION":2.005552,"ECCENTRICITY":0.0083298,"INCLINATION":53.6411,"RA_OF_ASC_NODE":152.2899,"ARG_OF_PERICENTER":229.4222,"MEAN_ANOMALY":129.9278,"EPHEMERIS_TYPE":0,"CLASSIFICATION_TYPE":"U","NORAD_CAT_ID":39533,"ELEMENT_SET_NO":999,"REV_AT_EPOCH":8822,"BSTAR":0,"MEAN_MOTION_DOT":2.0e-7,"MEAN_MOTION_DDOT":0},{"OBJECT_NAME":"GPS BIIF-6  (PRN 06)","OBJECT_ID":"2014-026A","EPOCH":"2026-04-05T16:00:44.593920","MEAN_MOTION":2.005665,"ECCENTRICITY":0.0039349,"INCLINATION":56.5313,"RA_OF_ASC_NODE":334.3423,"ARG_OF_PERICENTER":326.1202,"MEAN_ANOMALY":33.6769,"EPHEMERIS_TYPE":0,"CLASSIFICATION_TYPE":"U","NORAD_CAT_ID":39741,"ELEMENT_SET_NO":999,"REV_AT_EPOCH":8708,"BSTAR":0,"MEAN_MOTION_DOT":-8.8e-7,"MEAN_MOTION_DDOT":0}]
